OBJECT_NAME,OBJECT_ID,EPOCH,MEAN_MOTION,ECCENTRICITY,INCLINATION,RA_OF_ASC_NODE,ARG_OF_PERICENTER,MEAN_ANOMALY,EPHEMERIS_TYPE,CLASSIFICATION_TYPE,NORAD_CAT_ID,ELEMENT_SET_NO,REV_AT_EPOCH,BSTAR,MEAN_MOTION_DOT,MEAN_MOTION_DDOT
ONEWEB-0196,2021-031J,2026-07-13T18:46:18.770016,13.14502116,.0002157,87.8976,284.4073,101.0301,259.1072,0,U,48218,999,25172,.51428E-3,.203E-5,0
ONEWEB-0183,2021-031K,2026-07-13T18:09:46.166976,13.14502238,.0001964,87.8966,284.4111,94.5857,265.5497,0,U,48219,999,25181,-.16469E-3,-.48E-6,0
ONEWEB-0185,2021-031L,2026-07-14T03:55:28.737984,13.14503600,.0002211,87.8975,284.3256,90.3597,269.7786,0,U,48220,999,25179,.55545E-3,.219E-5,0
ONEWEB-0187,2021-031M,2026-07-14T05:16:21.471744,13.14503246,.0002191,87.8967,284.3282,97.5391,262.5987,0,U,48221,999,25181,.17232E-3,.77E-6,0
ONEWEB-0192,2021-031N,2026-07-14T04:33:10.582848,13.14503016,.0002113,87.8968,284.3241,101.2191,258.9176,0,U,48222,999,25172,-.40438E-3,-.137E-5,0
ONEWEB-0219,2021-031P,2026-07-13T18:55:25.548096,13.14503523,.0002201,87.8978,284.3970,95.4701,264.6680,0,U,48223,999,25187,.46763E-3,.186E-5,0
ONEWEB-0202,2021-031Q,2026-07-14T05:25:42.466080,13.14502623,.0002626,87.8969,284.3224,108.0826,252.0590,0,U,48224,999,25191,.33891E-3,.138E-5,0
ONEWEB-0204,2021-031R,2026-07-14T04:25:10.445952,13.14499769,.0001711,87.8978,284.3240,91.5084,268.6241,0,U,48225,999,25180,-.12596E-3,-.34E-6,0
ONEWEB-0205,2021-031S,2026-07-13T18:41:44.481984,13.14502316,.000231,87.8977,284.4009,96.3315,263.8078,0,U,48226,999,25176,.55976E-3,.22E-5,0
ONEWEB-0206,2021-031T,2026-07-14T03:10:57.515232,13.14502379,.0001897,87.8970,284.3307,101.5514,258.5828,0,U,48227,999,25176,-.19285E-3,-.59E-6,0
ONEWEB-0182,2021-031U,2026-07-14T04:53:42.481824,13.14504018,.0001904,87.8968,284.3229,94.5875,265.5472,0,U,48228,999,25198,-.46378E-3,-.159E-5,0
ONEWEB-0186,2021-031V,2026-07-14T05:09:42.429024,13.14503168,.0002121,87.8974,284.3143,98.7822,261.3547,0,U,48229,999,25193,.38856E-5,.14E-6,0
ONEWEB-0181,2021-031W,2026-07-14T04:37:43.008096,13.14501995,.0002253,87.8959,284.3430,98.6247,261.5138,0,U,48230,999,25178,-.37713E-3,-.127E-5,0
ONEWEB-0188,2021-031X,2026-07-14T03:42:56.003904,13.14502416,.0002063,87.8961,284.3501,96.0731,264.0634,0,U,48231,999,25168,.60666E-3,.238E-5,0
ONEWEB-0220,2021-031Y,2026-07-14T04:40:01.263648,13.14495359,.0002164,87.8981,284.3184,93.7599,266.3778,0,U,48232,999,25195,-.14044E-2,-.508E-5,0
ONEWEB-0165,2021-031Z,2026-07-14T05:21:07.913664,13.14503686,.0002406,87.8966,284.3249,103.5529,256.5869,0,U,48233,999,25191,.30552E-3,.126E-5,0
ONEWEB-0199,2021-031AA,2026-07-14T04:58:17.543136,13.14502369,.0001861,87.8973,284.3153,101.2384,258.8955,0,U,48234,999,25181,-.33393E-3,-.111E-5,0
ONEWEB-0203,2021-031AB,2026-07-14T04:44:35.130048,13.14501452,.0002063,87.8975,284.3198,105.3143,254.8215,0,U,48235,999,25182,-.55343E-3,-.192E-5,0
ONEWEB-0197,2021-031AC,2026-07-13T17:10:11.481024,13.14501954,.0002035,87.8974,284.3984,89.2690,270.8673,0,U,48236,999,25167,.17158E-3,.76E-6,0
ONEWEB-0194,2021-031AD,2026-07-14T05:27:58.246272,13.14504146,.0001914,87.8968,284.3211,106.3016,253.8325,0,U,48237,999,25191,.49022E-3,.195E-5,0
ONEWEB-0193,2021-031AE,2026-07-13T18:53:09.604608,13.14501968,.0001803,87.8971,284.3990,113.6878,246.4441,0,U,48238,999,25180,.39773E-3,.16E-5,0
ONEWEB-0191,2021-031AF,2026-07-14T04:17:10.521600,13.14506079,.0001914,87.8977,284.3218,94.9333,265.2015,0,U,48239,999,25171,.16848E-3,.75E-6,0
ONEWEB-0195,2021-031AG,2026-07-14T03:44:04.523424,13.14504532,.0002448,87.8981,284.3257,97.1814,262.9594,0,U,48240,999,25169,.88309E-3,.34E-5,0
ONEWEB-0201,2021-031AH,2026-07-14T05:16:45.048576,13.14502597,.000203,87.8966,284.3282,91.9002,268.2360,0,U,48241,999,25193,.21685E-3,.93E-6,0
ONEWEB-0207,2021-031AJ,2026-07-14T04:47:59.415936,13.14501128,.0002032,87.8973,284.3183,92.4189,267.7173,0,U,48242,999,25184,-.51009E-3,-.176E-5,0
ONEWEB-0208,2021-031AK,2026-07-14T04:21:45.133632,13.14501851,.0002359,87.8968,284.3282,103.1158,257.0235,0,U,48243,999,25185,-.17378E-3,-.52E-6,0
ONEWEB-0200,2021-031AL,2026-07-14T01:39:37.880352,13.14502111,.0002108,87.8979,284.3391,98.5231,261.6137,0,U,48244,999,25176,.29996E-3,.124E-5,0
ONEWEB-0217,2021-031AM,2026-07-14T03:52:04.249056,13.14503011,.0002373,87.8983,284.3237,104.3368,255.8025,0,U,48245,999,25172,.67823E-3,.264E-5,0
ONEWEB-0211,2021-045A,2026-07-14T04:16:19.261344,13.16197978,.0002654,87.8991,253.6989,106.1031,254.0392,0,U,48767,999,24799,-.11224E-3,-.3E-6,0
ONEWEB-0223,2021-045B,2026-07-14T04:38:48.849216,13.15549885,.0002445,87.8992,253.8116,111.3173,248.8219,0,U,48768,999,24795,-.45265E-3,-.158E-5,0
