ONEWEB-0196             
1 48218U 21031J   26194.78216169  .00000203  00000+0  51428-3 0  9999
2 48218  87.8976 284.4073 0002157 101.0301 259.1072 13.14502116251726
ONEWEB-0183             
1 48219U 21031K   26194.75678434 -.00000048  00000+0 -16469-3 0  9999
2 48219  87.8966 284.4111 0001964  94.5857 265.5497 13.14502238251813
ONEWEB-0185             
1 48220U 21031L   26195.16352706  .00000219  00000+0  55545-3 0  9994
2 48220  87.8975 284.3256 0002211  90.3597 269.7786 13.14503600251793
ONEWEB-0187             
1 48221U 21031M   26195.21969296  .00000077  00000+0  17232-3 0  9992
2 48221  87.8967 284.3282 0002191  97.5391 262.5987 13.14503246251815
ONEWEB-0192             
1 48222U 21031N   26195.18970582 -.00000137  00000+0 -40438-3 0  9992
2 48222  87.8968 284.3241 0002113 101.2191 258.9176 13.14503016251721
ONEWEB-0219             
1 48223U 21031P   26194.78849014  .00000186  00000+0  46763-3 0  9992
2 48223  87.8978 284.3970 0002201  95.4701 264.6680 13.14503523251874
ONEWEB-0202             
1 48224U 21031Q   26195.22618595  .00000138  00000+0  33891-3 0  9996
2 48224  87.8969 284.3224 0002626 108.0826 252.0590 13.14502623251913
ONEWEB-0204             
1 48225U 21031R   26195.18414868 -.00000034  00000+0 -12596-3 0  9995
2 48225  87.8978 284.3240 0001711  91.5084 268.6241 13.14499769251808
ONEWEB-0205             
1 48226U 21031S   26194.77898706  .00000220  00000+0  55976-3 0  9991
2 48226  87.8977 284.4009 0002310  96.3315 263.8078 13.14502316251761
ONEWEB-0206             
1 48227U 21031T   26195.13261013 -.00000059  00000+0 -19285-3 0  9993
2 48227  87.8970 284.3307 0001897 101.5514 258.5828 13.14502379251767
ONEWEB-0182             
1 48228U 21031U   26195.20396391 -.00000159  00000+0 -46378-3 0  9994
2 48228  87.8968 284.3229 0001904  94.5875 265.5472 13.14504018251987
ONEWEB-0186             
1 48229U 21031V   26195.21507441  .00000014  00000+0  38856-5 0  9998
2 48229  87.8974 284.3143 0002121  98.7822 261.3547 13.14503168251937
ONEWEB-0181             
1 48230U 21031W   26195.19285889 -.00000127  00000+0 -37713-3 0  9992
2 48230  87.8959 284.3430 0002253  98.6247 261.5138 13.14501995251784
ONEWEB-0188             
1 48231U 21031X   26195.15481486  .00000238  00000+0  60666-3 0  9994
2 48231  87.8961 284.3501 0002063  96.0731 264.0634 13.14502416251683
ONEWEB-0220             
1 48232U 21031Y   26195.19445907 -.00000508  00000+0 -14044-2 0  9997
2 48232  87.8981 284.3184 0002164  93.7599 266.3778 13.14495359251952
ONEWEB-0165             
1 48233U 21031Z   26195.22300826  .00000126  00000+0  30552-3 0  9999
2 48233  87.8966 284.3249 0002406 103.5529 256.5869 13.14503686251911
ONEWEB-0199             
1 48234U 21031AA  26195.20714749 -.00000111  00000+0 -33393-3 0  9993
2 48234  87.8973 284.3153 0001861 101.2384 258.8955 13.14502369251819
ONEWEB-0203             
1 48235U 21031AB  26195.19762882 -.00000192  00000+0 -55343-3 0  9991
2 48235  87.8975 284.3198 0002063 105.3143 254.8215 13.14501452251822
ONEWEB-0197             
1 48236U 21031AC  26194.71541066  .00000076  00000+0  17158-3 0  9999
2 48236  87.8974 284.3984 0002035  89.2690 270.8673 13.14501954251677
ONEWEB-0194             
1 48237U 21031AD  26195.22775748  .00000195  00000+0  49022-3 0  9990
2 48237  87.8968 284.3211 0001914 106.3016 253.8325 13.14504146251910
ONEWEB-0193             
1 48238U 21031AE  26194.78691672  .00000160  00000+0  39773-3 0  9998
2 48238  87.8971 284.3990 0001803 113.6878 246.4441 13.14501968251807
ONEWEB-0191             
1 48239U 21031AF  26195.17859400  .00000075  00000+0  16848-3 0  9991
2 48239  87.8977 284.3218 0001914  94.9333 265.2015 13.14506079251711
ONEWEB-0195             
1 48240U 21031AG  26195.15560791  .00000340  00000+0  88309-3 0  9999
2 48240  87.8981 284.3257 0002448  97.1814 262.9594 13.14504532251698
ONEWEB-0201             
1 48241U 21031AH  26195.21996584  .00000093  00000+0  21685-3 0  9999
2 48241  87.8966 284.3282 0002030  91.9002 268.2360 13.14502597251934
ONEWEB-0207             
1 48242U 21031AJ  26195.19999324 -.00000176  00000+0 -51009-3 0  9999
2 48242  87.8973 284.3183 0002032  92.4189 267.7173 13.14501128251842
ONEWEB-0208             
1 48243U 21031AK  26195.18177238 -.00000052  00000+0 -17378-3 0  9995
2 48243  87.8968 284.3282 0002359 103.1158 257.0235 13.14501851251850
ONEWEB-0200             
1 48244U 21031AL  26195.06918843  .00000124  00000+0  29996-3 0  9995
2 48244  87.8979 284.3391 0002108  98.5231 261.6137 13.14502111251767
ONEWEB-0217             
1 48245U 21031AM  26195.16116029  .00000264  00000+0  67823-3 0  9999
2 48245  87.8983 284.3237 0002373 104.3368 255.8025 13.14503011251720
ONEWEB-0211             
1 48767U 21045A   26195.17800071 -.00000030  00000+0 -11224-3 0  9998
2 48767  87.8991 253.6989 0002654 106.1031 254.0392 13.16197978247995
ONEWEB-0223             
1 48768U 21045B   26195.19362094 -.00000158  00000+0 -45265-3 0  9992
2 48768  87.8992 253.8116 0002445 111.3173 248.8219 13.15549885247956
